APRIZESAT 2             
1 28366U 04025A   26160.07427164  .00000139  00000+0  56592-4 0  9995
2 28366  98.1008 326.5143 0104264 274.6382  84.2904 14.38032688150473
SAUDICOMSAT 1           
1 28369U 04025D   26160.24791683  .00000359  00000+0  93242-4 0  9994
2 28369  98.5772 170.1651 0033096  49.3975 311.0093 14.55467291162973
SAUDICOMSAT 2           
1 28370U 04025E   26159.98234137  .00000267  00000+0  80613-4 0  9997
2 28370  98.6641 171.9962 0054157 284.8764  74.6435 14.49976611158913
APRIZESAT 1             
1 28372U 04025G   26160.29979363  .00000182  00000+0  56773-4 0  9998
2 28372  98.6304 170.8107 0044608 177.6138 182.5277 14.51773007160760
NANOSAT-1               
1 28493U 04049B   26160.19212768  .00000944  00000+0  13170-3 0  9995
2 28493  98.2266 296.6582 0003245 335.9928  24.1131 14.80143663154268
SAUDICOMSAT 7           
1 31119U 07012C   26160.19591448  .00000439  00000+0  87856-4 0  9994
2 31119  98.3775 134.1642 0054788 220.5325 139.1792 14.66102575 21268
SAUDICOMSAT 6           
1 31121U 07012E   26160.22273178  .00000609  00000+0  12601-3 0  9992
2 31121  98.4095 127.5913 0071646 352.7016   7.3135 14.62548330 19028
SAUDICOMSAT 5           
1 31124U 07012H   26160.18049635  .00000503  00000+0  95219-4 0  9999
2 31124  98.3485 134.8975 0048025 149.4231 210.9788 14.68146638 22422
SAUDICOMSAT 3           
1 31125U 07012J   26159.88282883  .00000850  00000+0  14655-3 0  9998
2 31125  98.3139 135.1429 0040490  78.6411 281.9340 14.70692128 23604
SAUDICOMSAT 4           
1 31127U 07012L   26159.88759449  .00000530  00000+0  10730-3 0  9992
2 31127  98.3978 132.2889 0062101 284.7174  74.7150 14.64504046 20073
APRIZESAT 4             
1 35684U 09041D   26160.09779993  .00000574  00000+0  75109-4 0  9999
2 35684  98.1412 235.2570 0042967 349.6861  10.3466 14.83868357910162
APRIZESAT 3             
1 35686U 09041F   26160.14077702  .00001181  00000+0  10651-3 0  9991
2 35686  98.2052 312.9801 0062793  93.5826 267.2578 14.96217497915170
S-NET D                 
1 43186U 18014G   26160.28071682  .00004827  00000+0  25029-3 0  9996
2 43186  97.5367  65.1205 0009601  54.2452 305.9672 15.16597743457565
S-NET B                 
1 43187U 18014H   26160.29201531  .00004709  00000+0  24445-3 0  9996
2 43187  97.5374  65.1181 0010130  49.5298 310.6817 15.16567439457564
S-NET A                 
1 43188U 18014J   26160.27963641  .00004722  00000+0  24485-3 0  9991
2 43188  97.5382  65.3131 0010053  50.2402 309.9715 15.16605463457569
S-NET C                 
1 43189U 18014K   26160.29585110  .00004535  00000+0  23556-3 0  9995
2 43189  97.5401  65.4029 0011245  42.9291 317.2818 15.16559026456116
SALSAT                  
1 46495U 20068K   26159.90359287  .00007690  00000+0  27004-3 0  9997
2 46495  97.8856 162.4647 0008807 341.8369  18.2554 15.29680035314091
OOV-CUBE (TUBSAT-30)    
1 60240U 24128F   26159.80454764  .00002654  00000+0  20896-3 0  9994
2 60240  61.9950 254.8019 0045687 131.8693 228.6311 15.02739260104850
LPNTSAT-001 (IOD-1)     
1 68408U 26065A   26160.23518866  .00002468  00000+0  12254-3 0  9995
2 68408  97.4031  40.9129 0017495  37.3631 322.8816 15.18495128 11057
